H1 CPF 01  gfz 2021 04 14 12  6042 tandemx   
H2 1003001  6202 36605    2021 04 14 12 59 42 2021 04 19 00 00 42   120 1 1  0 0 0
H9
10 0 59319  26622.000000  0    2952684.387   -241708.912   6208308.286
10 0 59319  26742.000000  0    3680718.681   -609119.701   5780466.698
10 0 59319  26862.000000  0    4338032.235   -978016.664   5250959.292
10 0 59319  26982.000000  0    4913159.535  -1340612.861   4629064.432
10 0 59319  27102.000000  0    5396201.253  -1689040.048   3925695.113
10 0 59319  27222.000000  0    5779003.787  -2015516.710   3153210.844
10 0 59319  27342.000000  0    6055305.946  -2312519.252   2325200.952
10 0 59319  27462.000000  0    6220848.708  -2572951.135   1456243.355
10 0 59319  27582.000000  0    6273446.597  -2790305.896    561643.334
10 0 59319  27702.000000  0    6213017.040  -2958820.603   -342844.000
10 0 59319  27822.000000  0    6041567.397  -3073614.983  -1241299.885
10 0 59319  27942.000000  0    5763138.549  -3130812.627  -2117931.941
10 0 59319  28062.000000  0    5383707.619  -3127640.991  -2957358.479
10 0 59319  28182.000000  0    4911054.250  -3062508.356  -3744883.073
10 0 59319  28302.000000  0    4354593.024  -2935056.604  -4466752.952
10 0 59319  28422.000000  0    3725176.791  -2746188.524  -5110397.437
10 0 59319  28542.000000  0    3034875.553  -2498068.440  -5664640.124
10 0 59319  28662.000000  0    2296739.498  -2194098.261  -6119882.373
10 0 59319  28782.000000  0    1524550.408  -1838870.302  -6468259.770
10 0 59319  28902.000000  0     732563.144  -1438095.396  -6703768.037
10 0 59319  29022.000000  0     -64755.347   -998509.853  -6822355.400
10 0 59319  29142.000000  0    -852985.256   -527763.174  -6821984.075
10 0 59319  29262.000000  0   -1618008.294    -34287.833  -6702661.282
10 0 59319  29382.000000  0   -2346254.921    472848.264  -6466438.464
10 0 59319  29502.000000  0   -3024939.196    984103.629  -6117379.391
10 0 59319  29622.000000  0   -3642279.380   1489637.832  -5661498.478
10 0 59319  29742.000000  0   -4187703.094   1979496.376  -5106668.587
10 0 59319  29862.000000  0   -4652032.637   2443804.177  -4462496.795
10 0 59319  29982.000000  0   -5027645.717   2872963.521  -3740168.105
10 0 59319  30102.000000  0   -5308608.475   3257851.188  -2952260.699
10 0 59319  30222.000000  0   -5490779.272   3590012.872  -2112534.058
10 0 59319  30342.000000  0   -5571878.197   3861849.516  -1235691.336
10 0 59319  30462.000000  0   -5551520.947   4066789.826   -337120.423
10 0 59319  30582.000000  0   -5431214.933   4199445.323    567380.840
10 0 59319  30702.000000  0   -5214316.939   4255743.347   1461891.239
10 0 59319  30822.000000  0   -4905951.635   4233032.721   2330655.913
10 0 59319  30942.000000  0   -4512894.838   4130160.917   3158372.068
10 0 59319  31062.000000  0   -4043424.548   3947521.552   3930466.087
10 0 59319  31182.000000  0   -3507143.257   3687068.746   4633355.247
10 0 59319  31302.000000  0   -2914776.936   3352300.049   5254688.869
10 0 59319  31422.000000  0   -2277954.677   2948207.900   5783564.702
10 0 59319  31542.000000  0   -1608975.173   2481201.578   6210716.946
10 0 59319  31662.000000  0    -920564.430   1959000.894   6528672.980
10 0 59319  31782.000000  0    -225632.141   1390504.834   6731876.140
10 0 59319  31902.000000  0     462969.961    785637.844   6816777.872
10 0 59319  32022.000000  0    1132685.512    155175.861   6781895.386
10 0 59319  32142.000000  0    1771481.275   -489444.893   6627836.051
10 0 59319  32262.000000  0    2368062.709  -1136334.901   6357288.198
10 0 59319  32382.000000  0    2912073.981  -1773369.791   5974977.696
10 0 59319  32502.000000  0    3394280.455  -2388417.782   5487591.000
10 0 59319  32622.000000  0    3806728.957  -2969571.774   4903663.662
10 0 59319  32742.000000  0    4142883.594  -3505382.233   4233436.792
10 0 59319  32862.000000  0    4397734.305  -3985086.647   3488681.661
10 0 59319  32982.000000  0    4567875.817  -4398830.378   2682495.051
10 0 59319  33102.000000  0    4651555.181  -4737873.439   1829067.601
10 0 59319  33222.000000  0    4648685.247  -4994777.509    943429.641
10 0 59319  33342.000000  0    4560823.712  -5163569.423     41179.941
10 0 59319  33462.000000  0    4391118.550  -5239875.837   -861796.655
10 0 59319  33582.000000  0    4144222.512  -5221026.847  -1749617.909
10 0 59319  33702.000000  0    3826175.910  -5106124.243  -2606692.083
10 0 59319  33822.000000  0    3444263.139  -4896073.786  -3417997.875
10 0 59319  33942.000000  0    3006846.102  -4593580.743  -4169350.732
10 0 59319  34062.000000  0    2523179.489  -4203110.650  -4847650.573
10 0 59319  34182.000000  0    2003212.338  -3730814.574  -5441105.770
10 0 59319  34302.000000  0    1457382.241  -3184423.445  -5939428.558
10 0 59319  34422.000000  0     896406.279  -2573115.795  -6334002.990
10 0 59319  34542.000000  0     331071.670  -1907359.280  -6618023.589
10 0 59319  34662.000000  0    -227968.967  -1198728.862  -6786601.829
10 0 59319  34782.000000  0    -770393.350   -459706.186  -6836840.710
10 0 59319  34902.000000  0   -1286394.906    296536.411  -6767878.535
10 0 59319  35022.000000  0   -1766856.037   1056364.626  -6580901.362
10 0 59319  35142.000000  0   -2203505.290   1805921.743  -6279124.775
10 0 59319  35262.000000  0   -2589057.146   2531374.868  -5867744.919
10 0 59319  35382.000000  0   -2917333.716   3219166.235  -5353859.264
10 0 59319  35502.000000  0   -3183365.443   3856265.492  -4746355.953
10 0 59319  35622.000000  0   -3383470.087   4430418.861  -4055771.329
10 0 59319  35742.000000  0   -3515306.132   4930389.113  -3294115.850
10 0 59319  35862.000000  0   -3577899.280   5346180.542  -2474672.765
10 0 59319  35982.000000  0   -3571643.532   5669246.344  -1611772.251
10 0 59319  36102.000000  0   -3498274.494   5892673.202   -720541.592
10 0 59319  36222.000000  0   -3360814.169   6011335.190    183363.768
10 0 59319  36342.000000  0   -3163491.139   6022014.053   1084040.695
10 0 59319  36462.000000  0   -2911634.462   5923482.691   1965628.614
10 0 59319  36582.000000  0   -2611542.993   5716546.473   2812599.399
10 0 59319  36702.000000  0   -2270336.318   5404042.051   3610038.746
10 0 59319  36822.000000  0   -1895791.555   4990796.190   4343914.051
10 0 59319  36942.000000  0   -1496169.576   4483545.316   5001324.416
10 0 59319  37062.000000  0   -1080034.074   3890818.135   5570728.232
10 0 59319  37182.000000  0    -656068.958   3222783.391   6042142.966
10 0 59319  37302.000000  0    -232898.516   2491067.372   6407315.332
10 0 59319  37422.000000  0     181086.530   1708546.012   6659859.344
10 0 59319  37542.000000  0     577894.188    889114.782   6795362.837
10 0 59319  37662.000000  0     950084.395     47440.008   6811458.859
10 0 59319  37782.000000  0    1290907.384   -801302.486   6707864.688
10 0 59319  37902.000000  0    1594425.709  -1641700.758   6486387.359
10 0 59319  38022.000000  0    1855618.021  -2458385.991   6150894.419
10 0 59319  38142.000000  0    2070462.873  -3236314.658   5707251.110
10 0 59319  38262.000000  0    2236001.332  -3961048.359   5163222.976
10 0 59319  38382.000000  0    2350376.787  -4619025.391   4528345.111
10 0 59319  38502.000000  0    2412852.647  -5197820.412   3813760.799
10 0 59319  38622.000000  0    2423807.023  -5686387.543   3032028.756
10 0 59319  38742.000000  0    2384702.003  -6075280.159   2196902.608
10 0 59319  38862.000000  0    2298030.239  -6356840.939   1323085.782
10 0 59319  38982.000000  0    2167240.183  -6525357.964    425968.430
10 0 59319  39102.000000  0    1996640.782  -6577185.764   -478650.030
10 0 59319  39222.000000  0    1791288.352  -6510825.063  -1374849.570
10 0 59319  39342.000000  0    1556855.986  -6326956.325  -2246879.482
10 0 59319  39462.000000  0    1299491.845  -6028430.932  -3079442.331
10 0 59319  39582.000000  0    1025670.237  -5620215.899  -3857967.249
10 0 59319  39702.000000  0     742039.930  -5109299.544  -4568864.889
10 0 59319  39822.000000  0     455271.546  -4504559.389  -5199761.469
10 0 59319  39942.000000  0     171908.756  -3816596.526  -5739707.259
10 0 59319  40062.000000  0    -101773.653  -3057540.032  -6179357.330
10 0 59319  40182.000000  0    -359901.860  -2240826.558  -6511121.917
10 0 59319  40302.000000  0    -597123.001  -1380959.737  -6729285.848
10 0 59319  40422.000000  0    -808710.994   -493254.064  -6830097.173
10 0 59319  40542.000000  0    -990656.530    406434.193  -6811824.644
10 0 59319  40662.000000  0   -1139740.520   1301983.328  -6674782.946
10 0 59319  40782.000000  0   -1253589.747   2177287.548  -6421327.780
10 0 59319  40902.000000  0   -1330713.871   3016539.116  -6055820.210
10 0 59319  41022.000000  0   -1370523.976   3804510.010  -5584561.034
10 0 59319  41142.000000  0   -1373331.654   4526826.982  -5015692.456
10 0 59319  41262.000000  0   -1340328.998   5170236.751  -4359069.415
10 0 59319  41382.000000  0   -1273549.574   5722855.957  -3626098.886
10 0 59319  41502.000000  0   -1175810.310   6174399.294  -2829549.723
10 0 59319  41622.000000  0   -1050635.638   6516381.883  -1983336.595
10 0 59319  41742.000000  0    -902165.186   6742291.303  -1102278.799
10 0 59319  41862.000000  0    -735047.278   6847722.522   -201839.542
10 0 59319  41982.000000  0    -554319.883   6830474.400    702149.939
10 0 59319  42102.000000  0    -365282.498   6690602.447   1593777.619
10 0 59319  42222.000000  0    -173362.452   6430423.417   2457341.403
10 0 59319  42342.000000  0      16020.555   6054473.517   3277633.364
10 0 59319  42462.000000  0     197588.661   5569424.226   4040213.088
10 0 59319  42582.000000  0     366335.545   4983959.024   4731667.743
10 0 59319  42702.000000  0     517648.661   4308604.185   5339852.992
10 0 59319  42822.000000  0     647420.563   3555528.323   5854100.346
10 0 59319  42942.000000  0     752147.636   2738316.297   6265401.546
10 0 59319  43062.000000  0     829012.504   1871716.472   6566560.954
99
